[{"OBJECT_NAME":"STELLA","OBJECT_ID":"1993-061B","EPOCH":"2026-03-09T22:50:14.153280","MEAN_MOTION":14.2746756,"ECCENTRICITY":0.00067535,"INCLINATION":98.784,"RA_OF_ASC_NODE":132.7988,"ARG_OF_PERICENTER":156.9855,"MEAN_ANOMALY":327.7404,"EPHEMERIS_TYPE":0,"CLASSIFICATION_TYPE":"U","NORAD_CAT_ID":22824,"ELEMENT_SET_NO":999,"REV_AT_EPOCH":69061,"BSTAR":7.617075e-6,"MEAN_MOTION_DOT":-2.6e-7,"MEAN_MOTION_DDOT":0},{"OBJECT_NAME":"METEOR 2-8 DEB","OBJECT_ID":"1982-025AS","EPOCH":"2026-03-02T06:58:44.000256","MEAN_MOTION":14.27999797,"ECCENTRICITY":0.00060755,"INCLINATION":82.5125,"RA_OF_ASC_NODE":272.8194,"ARG_OF_PERICENTER":351.965,"MEAN_ANOMALY":8.1436,"EPHEMERIS_TYPE":0,"CLASSIFICATION_TYPE":"U","NORAD_CAT_ID":36356,"ELEMENT_SET_NO":999,"REV_AT_EPOCH":25186,"BSTAR":0.00080929919,"MEAN_MOTION_DOT":2.023e-5,"MEAN_MOTION_DDOT":0}]
